[{"OBJECT_NAME":"STARLINK-1185","OBJECT_ID":"2020-006AV","EPOCH":"2026-03-09T17:07:52.513536","MEAN_MOTION":15.30190318,"ECCENTRICITY":0.00013297,"INCLINATION":53.1595,"RA_OF_ASC_NODE":242.2977,"ARG_OF_PERICENTER":58.8822,"MEAN_ANOMALY":301.2309,"EPHEMERIS_TYPE":0,"CLASSIFICATION_TYPE":"U","NORAD_CAT_ID":45087,"ELEMENT_SET_NO":999,"REV_AT_EPOCH":33709,"BSTAR":2.1175504e-5,"MEAN_MOTION_DOT":2.68e-6,"MEAN_MOTION_DDOT":0},{"OBJECT_NAME":"COSMOS 2588","OBJECT_ID":"2025-109A","EPOCH":"2026-03-09T19:28:59.107008","MEAN_MOTION":15.29122656,"ECCENTRICITY":0.0005019,"INCLINATION":72.9704,"RA_OF_ASC_NODE":73.5401,"ARG_OF_PERICENTER":308.678,"MEAN_ANOMALY":51.3966,"EPHEMERIS_TYPE":0,"CLASSIFICATION_TYPE":"U","NORAD_CAT_ID":64095,"ELEMENT_SET_NO":999,"REV_AT_EPOCH":4442,"BSTAR":0.00032611,"MEAN_MOTION_DOT":9.169e-5,"MEAN_MOTION_DDOT":0}]
